OBJECT_NAME,OBJECT_ID,EPOCH,MEAN_MOTION,ECCENTRICITY,INCLINATION,RA_OF_ASC_NODE,ARG_OF_PERICENTER,MEAN_ANOMALY,EPHEMERIS_TYPE,CLASSIFICATION_TYPE,NORAD_CAT_ID,ELEMENT_SET_NO,REV_AT_EPOCH,BSTAR,MEAN_MOTION_DOT,MEAN_MOTION_DDOT
SHIJIAN-25 (SJ-25),2025-002A,2026-06-17T19:21:46.812384,1.00264537,.0052241,5.1153,61.1628,173.4299,89.1640,0,U,62485,999,536,0,-.358E-5,0
TJS-14,2025-017A,2026-06-18T14:43:12.212256,1.00275083,.0000906,0.7786,295.7573,286.4177,283.8884,0,U,62804,999,528,0,.11E-5,0
SPAINSAT NG I,2025-021A,2026-06-18T13:03:37.724832,1.00270022,.0000168,0.0184,1.2360,289.9037,200.5362,0,U,62852,999,400,0,.145E-5,0
QZS-6 (MICHIBIKI-6),2025-023A,2026-06-18T17:11:20.931072,1.00270342,.0001805,0.0575,72.0420,20.1153,163.1463,0,U,62876,999,496,0,-.239E-5,0
ZHONGXING-10R,2025-036A,2026-06-18T16:23:18.640896,1.00271178,.0003518,0.0253,235.0273,264.4394,123.8170,0,U,63075,999,497,0,-.358E-5,0
TJS-15,2025-045A,2026-06-17T18:59:21.025248,1.00271170,.0004644,0.2876,85.4798,297.2567,262.5358,0,U,63157,999,476,0,-.27E-5,0
TIANLIAN 2-04,2025-062A,2026-06-18T09:52:49.928736,1.00271823,.0031676,4.3707,274.4237,10.4228,210.0696,0,U,63361,999,461,0,-.14E-5,0
TJS-16,2025-064A,2026-06-17T17:09:14.990112,1.00271394,.0003334,1.1003,81.4533,290.0433,312.3891,0,U,63397,999,439,0,-.111E-5,0
TJS-17,2025-073A,2026-06-17T17:10:22.382112,1.00272176,.0002062,1.0661,82.6888,297.6727,307.7357,0,U,63524,999,429,0,-.75E-6,0
TIANLIAN 2-05,2025-084A,2026-06-18T17:45:30.924000,1.00271351,.0003138,4.4464,279.8208,147.8637,126.0106,0,U,63662,999,439,0,.118E-5,0
TJS-19,2025-097A,2026-06-17T18:46:21.000000,1.00276123,.000291,3.2851,317.4623,249.7750,121.5337,0,U,63924,999,415,0,-.28E-5,0
CHINASAT 3B,2025-106A,2026-06-18T14:55:38.654688,1.00271660,.0003026,0.0297,110.9581,13.9280,173.1884,0,U,64062,999,407,0,-.51E-6,0
SXM-10,2025-122A,2026-06-18T12:22:11.697024,1.00271009,.0001753,0.0231,37.1467,324.7997,334.1828,0,U,64290,999,369,0,-.23E-6,0
COSMOS 2589,2025-131A,2026-06-17T18:59:05.174304,1.00272159,.0000163,0.0368,81.6800,32.8632,174.2407,0,U,64467,999,356,0,-.296E-5,0
CHINASAT 9C,2025-132A,2026-06-18T16:57:19.839168,1.00268767,.0002694,0.0157,64.4026,20.0395,169.0021,0,U,64470,999,416,0,-.253E-5,0
MTG-S1,2025-143A,2026-06-17T23:13:03.747936,1.00270537,.00007875,0.6022,339.1600,17.8158,254.0253,0,U,64723,999,342,0,-.37E-6,0
DROR 1,2025-148A,2026-06-18T09:28:51.848256,1.00270809,.00026228,0.0390,68.2924,320.2948,16.2547,0,U,64784,999,330,0,-.41E-6,0
SHIYAN-29,2025-196A,2026-06-18T16:02:56.767776,1.00284927,.0012598,28.8232,18.5168,177.4218,46.3156,0,U,65486,999,289,0,-.285E-5,0
NUSANTARA LIMA (NUSANTARA 5),2025-205A,2026-06-17T20:48:01.112256,1.00270924,.0000109,0.0181,103.4558,70.6404,156.8713,0,U,65588,999,272,0,-.363E-5,0
TJS-20,2025-238A,2026-06-18T11:30:29.903328,1.00275083,.0004591,5.4660,299.5550,163.9682,38.2833,0,U,66142,999,234,0,.18E-6,0
CMS-03 (GSAT-7R),2025-249B,2026-06-18T14:59:06.838080,1.00271190,.00016,0.0141,43.6701,37.8563,124.0956,0,U,66311,999,236,0,-.83E-6,0
VIASAT-3 F2,2025-261A,2026-06-18T14:15:29.869344,1.00270916,.0000046,0.0425,171.7553,324.2522,265.7235,0,U,66454,999,280,0,-.24E-5,0
SHIJIAN-28 (SJ-28),2025-277A,2026-06-18T15:11:20.665248,1.00276732,.0001238,4.5336,272.1128,38.7922,300.5455,0,U,66549,999,216,0,-.365E-5,0
TJS-22,2025-290A,2026-06-17T20:59:04.623648,1.00273727,.0001932,1.5271,286.5804,330.3677,30.4397,0,U,66990,999,203,0,-.12E-6,0
TJS-23,2025-306A,2026-06-18T14:20:53.397600,1.00275797,.0005414,5.5850,297.4791,171.6767,188.4971,0,U,67226,999,190,0,.12E-6,0
FENGYUN 4C,2025-312A,2026-06-18T16:35:31.835616,1.00271547,.0000372,0.0466,138.8787,72.0370,77.8882,0,U,67246,999,179,0,-.329E-5,0
SHIJIAN-29A (SJ-29A),2025-315A,2026-06-18T15:29:03.803424,1.00269922,.00031886,3.4023,95.0696,24.5888,92.6665,0,U,67302,999,163,0,-.74E-6,0
SHIJIAN-29B (SJ-29B),2025-315C,2026-06-18T15:28:09.653952,1.00270301,.00039597,3.4013,95.0618,34.6791,82.3985,0,U,67403,999,170,0,-.75E-6,0
ELEKTRO-L 5,2026-028A,2026-06-18T01:10:39.733536,1.00272307,.00017475,0.2501,311.9136,179.9993,228.0916,0,U,67756,999,126,0,-.103E-5,0
JAM-E JAM 1,2026-028B,2026-06-18T15:13:19.807392,1.00276418,.0001138,0.2563,302.9159,294.9877,291.2811,0,U,67757,999,113,0,.15E-5,0
ECHOSTAR 25,2026-045A,2026-06-18T14:06:38.218176,1.00268393,.0001833,0.0193,12.6365,74.5333,281.3215,0,U,68126,999,100,0,0,0
